{
  "type": "FeatureCollection",
  "features": [
    {
      "type": "Feature",
      "properties": {
        "norad_id": 39773,
        "name": "EUTELSAT 3B",
        "group": "eutelsat",
        "lat": -0.010779490751713876,
        "lon": -22.57743534811195,
        "alt_km": 35792.076389867856,
        "timestamp": "2025-12-12T16:50:32.819098+00:00",
        "meta_object_name": "EUTELSAT 3B",
        "meta_object_id": "2014-030A",
        "meta_epoch": "2025-12-12T03:13:23.493216",
        "meta_mean_motion": 1.00270499,
        "meta_eccentricity": 0.00045969,
        "meta_inclination": 0.0614,
        "meta_ra_of_asc_node": 347.8073,
        "meta_arg_of_pericenter": 242.4386,
        "meta_mean_anomaly": 262.2867,
        "meta_ephemeris_type": 0,
        "meta_classification_type": "U",
        "meta_norad_cat_id": 39773,
        "meta_element_set_no": 999,
        "meta_rev_at_epoch": 4219,
        "meta_bstar": 0,
        "meta_mean_motion_dot": 2.9e-07,
        "meta_mean_motion_ddot": 0,
        "tle_line1": "1 39773U 14030A   25346.13429969  .00000029  00000+0  00000+0 0  9999",
        "tle_line2": "2 39773   0.0614 347.8073 0004596 242.4386 262.2867  1.00270499 42198"
      },
      "geometry": {
        "type": "Point",
        "coordinates": [
          -22.57743534811195,
          -0.010779490751713876
        ]
      }
    },
    {
      "type": "Feature",
      "properties": {
        "norad_id": 40425,
        "name": "EUTELSAT 115 WEST B",
        "group": "eutelsat",
        "lat": 0.0077916159747424855,
        "lon": -140.61579540884202,
        "alt_km": 35785.617600255435,
        "timestamp": "2025-12-12T16:50:32.819109+00:00",
        "meta_object_name": "EUTELSAT 115 WEST B",
        "meta_object_id": "2015-010B",
        "meta_epoch": "2025-12-12T06:05:08.647584",
        "meta_mean_motion": 1.00273318,
        "meta_eccentricity": 1.672e-05,
        "meta_inclination": 0.0099,
        "meta_ra_of_asc_node": 150.4217,
        "meta_arg_of_pericenter": 340.8536,
        "meta_mean_anomaly": 286.3181,
        "meta_ephemeris_type": 0,
        "meta_classification_type": "U",
        "meta_norad_cat_id": 40425,
        "meta_element_set_no": 999,
        "meta_rev_at_epoch": 3951,
        "meta_bstar": 0,
        "meta_mean_motion_dot": -1.5e-07,
        "meta_mean_motion_ddot": 0,
        "tle_line1": "1 40425U 15010B   25346.25357231 -.00000015  00000+0  00000+0 0  9995",
        "tle_line2": "2 40425   0.0099 150.4217 0000167 340.8536 286.3181  1.00273318 39510"
      },
      "geometry": {
        "type": "Point",
        "coordinates": [
          -140.61579540884202,
          0.0077916159747424855
        ]
      }
    },
    {
      "type": "Feature",
      "properties": {
        "norad_id": 40875,
        "name": "EUTELSAT 8 WEST B",
        "group": "eutelsat",
        "lat": -0.04621029303587656,
        "lon": -33.66633138106594,
        "alt_km": 35778.39549889358,
        "timestamp": "2025-12-12T16:50:32.819121+00:00",
        "meta_object_name": "EUTELSAT 8 WEST B",
        "meta_object_id": "2015-039B",
        "meta_epoch": "2025-12-12T04:52:53.067936",
        "meta_mean_motion": 1.00271635,
        "meta_eccentricity": 0.00042073,
        "meta_inclination": 0.0654,
        "meta_ra_of_asc_node": 6.8016,
        "meta_arg_of_pericenter": 255.2683,
        "meta_mean_anomaly": 244.3196,
        "meta_ephemeris_type": 0,
        "meta_classification_type": "U",
        "meta_norad_cat_id": 40875,
        "meta_element_set_no": 999,
        "meta_rev_at_epoch": 3778,
        "meta_bstar": 0,
        "meta_mean_motion_dot": -5.6e-07,
        "meta_mean_motion_ddot": 0,
        "tle_line1": "1 40875U 15039B   25346.20339199 -.00000056  00000+0  00000+0 0  9998",
        "tle_line2": "2 40875   0.0654   6.8016 0004207 255.2683 244.3196  1.00271635 37785"
      },
      "geometry": {
        "type": "Point",
        "coordinates": [
          -33.66633138106594,
          -0.04621029303587656
        ]
      }
    },
    {
      "type": "Feature",
      "properties": {
        "norad_id": 41310,
        "name": "EUTELSAT 9B",
        "group": "eutelsat",
        "lat": -0.0382146278854548,
        "lon": -16.6700270226155,
        "alt_km": 35781.025228615385,
        "timestamp": "2025-12-12T16:50:32.819132+00:00",
        "meta_object_name": "EUTELSAT 9B",
        "meta_object_id": "2016-005A",
        "meta_epoch": "2025-12-11T22:06:55.623168",
        "meta_mean_motion": 1.00269719,
        "meta_eccentricity": 0.0004684,
        "meta_inclination": 0.0432,
        "meta_ra_of_asc_node": 62.511,
        "meta_arg_of_pericenter": 207.2212,
        "meta_mean_anomaly": 151.8834,
        "meta_ephemeris_type": 0,
        "meta_classification_type": "U",
        "meta_norad_cat_id": 41310,
        "meta_element_set_no": 999,
        "meta_rev_at_epoch": 3623,
        "meta_bstar": 0,
        "meta_mean_motion_dot": 7e-07,
        "meta_mean_motion_ddot": 0,
        "tle_line1": "1 41310U 16005A   25345.92147712  .00000070  00000+0  00000+0 0  9998",
        "tle_line2": "2 41310   0.0432  62.5110 0004684 207.2212 151.8834  1.00269719 36232"
      },
      "geometry": {
        "type": "Point",
        "coordinates": [
          -16.6700270226155,
          -0.0382146278854548
        ]
      }
    },
    {
      "type": "Feature",
      "properties": {
        "norad_id": 41382,
        "name": "EUTELSAT 65 WEST A",
        "group": "eutelsat",
        "lat": -0.06612272986178018,
        "lon": -90.92301463961728,
        "alt_km": 35775.393053650536,
        "timestamp": "2025-12-12T16:50:32.819149+00:00",
        "meta_object_name": "EUTELSAT 65 WEST A",
        "meta_object_id": "2016-014A",
        "meta_epoch": "2025-12-12T06:19:22.284768",
        "meta_mean_motion": 1.00272064,
        "meta_eccentricity": 0.0002521,
        "meta_inclination": 0.0514,
        "meta_ra_of_asc_node": 13.1071,
        "meta_arg_of_pericenter": 255.6026,
        "meta_mean_anomaly": 202.1469,
        "meta_ephemeris_type": 0,
        "meta_classification_type": "U",
        "meta_norad_cat_id": 41382,
        "meta_element_set_no": 999,
        "meta_rev_at_epoch": 3566,
        "meta_bstar": 0,
        "meta_mean_motion_dot": -2.66e-06,
        "meta_mean_motion_ddot": 0,
        "tle_line1": "1 41382U 16014A   25346.26345237 -.00000266  00000+0  00000+0 0  9995",
        "tle_line2": "2 41382   0.0514  13.1071 0002521 255.6026 202.1469  1.00272064 35665"
      },
      "geometry": {
        "type": "Point",
        "coordinates": [
          -90.92301463961728,
          -0.06612272986178018
        ]
      }
    },
    {
      "type": "Feature",
      "properties": {
        "norad_id": 41589,
        "name": "EUTELSAT 117 WEST B",
        "group": "eutelsat",
        "lat": 0.008493573911860404,
        "lon": -142.68909269022595,
        "alt_km": 35787.43331836151,
        "timestamp": "2025-12-12T16:50:32.819161+00:00",
        "meta_object_name": "EUTELSAT 117 WEST B",
        "meta_object_id": "2016-038B",
        "meta_epoch": "2025-12-11T23:13:36.273216",
        "meta_mean_motion": 1.00275784,
        "meta_eccentricity": 5.99e-05,
        "meta_inclination": 0.0087,
        "meta_ra_of_asc_node": 154.6922,
        "meta_arg_of_pericenter": 250.9411,
        "meta_mean_anomaly": 266.7128,
        "meta_ephemeris_type": 0,
        "meta_classification_type": "U",
        "meta_norad_cat_id": 41589,
        "meta_element_set_no": 999,
        "meta_rev_at_epoch": 3478,
        "meta_bstar": 0,
        "meta_mean_motion_dot": -4e-08,
        "meta_mean_motion_ddot": 0,
        "tle_line1": "1 41589U 16038B   25345.96778094 -.00000004  00000+0  00000+0 0  9997",
        "tle_line2": "2 41589   0.0087 154.6922 0000599 250.9411 266.7128  1.00275784 34786"
      },
      "geometry": {
        "type": "Point",
        "coordinates": [
          -142.68909269022595,
          0.008493573911860404
        ]
      }
    },
    {
      "type": "Feature",
      "properties": {
        "norad_id": 42741,
        "name": "EUTELSAT 172B",
        "group": "eutelsat",
        "lat": 0.0012742664484309192,
        "lon": 146.26182525846593,
        "alt_km": 35786.98139158988,
        "timestamp": "2025-12-12T16:50:32.819173+00:00",
        "meta_object_name": "EUTELSAT 172B",
        "meta_object_id": "2017-029B",
        "meta_epoch": "2025-12-12T05:01:38.705664",
        "meta_mean_motion": 1.00270008,
        "meta_eccentricity": 1.125e-05,
        "meta_inclination": 0.0256,
        "meta_ra_of_asc_node": 150.9223,
        "meta_arg_of_pericenter": 201.7173,
        "meta_mean_anomaly": 335.9201,
        "meta_ephemeris_type": 0,
        "meta_classification_type": "U",
        "meta_norad_cat_id": 42741,
        "meta_element_set_no": 999,
        "meta_rev_at_epoch": 3185,
        "meta_bstar": 0,
        "meta_mean_motion_dot": 4e-08,
        "meta_mean_motion_ddot": 0,
        "tle_line1": "1 42741U 17029B   25346.20947576  .00000004  00000+0  00000+0 0  9999",
        "tle_line2": "2 42741   0.0256 150.9223 0000112 201.7173 335.9201  1.00270008 31858"
      },
      "geometry": {
        "type": "Point",
        "coordinates": [
          146.26182525846593,
          0.0012742664484309192
        ]
      }
    }
  ]
}